<?xml version="1.0" encoding="UTF-8"?>
<ndm xmlns:xsi="http://www.w3.org/2001/XMLSchema-instance" xsi:noNamespaceSchemaLocation="https://sanaregistry.org/r/ndmxml_unqualified/ndmxml-2.0.0-master-2.0.xsd">
<omm id="CCSDS_OMM_VERS" version="2.0">
<header><CREATION_DATE/><ORIGINATOR/></header><body><segment><metadata><OBJECT_NAME>IRIDIUM 63</OBJECT_NAME><OBJECT_ID>1998-021B</OBJECT_ID><CENTER_NAME>EARTH</CENTER_NAME><REF_FRAME>TEME</REF_FRAME><TIME_SYSTEM>UTC</TIME_SYSTEM><MEAN_ELEMENT_THEORY>SGP4</MEAN_ELEMENT_THEORY></metadata><data><meanElements><EPOCH>2025-09-16T21:56:12.755328</EPOCH><MEAN_MOTION>14.36612399</MEAN_MOTION><ECCENTRICITY>.00020876</ECCENTRICITY><INCLINATION>86.3975</INCLINATION><RA_OF_ASC_NODE>43.6210</RA_OF_ASC_NODE><ARG_OF_PERICENTER>86.7002</ARG_OF_PERICENTER><MEAN_ANOMALY>273.4434</MEAN_ANOMALY></meanElements><tleParameters><EPHEMERIS_TYPE>0</EPHEMERIS_TYPE><CLASSIFICATION_TYPE>U</CLASSIFICATION_TYPE><NORAD_CAT_ID>25286</NORAD_CAT_ID><ELEMENT_SET_NO>999</ELEMENT_SET_NO><REV_AT_EPOCH>43701</REV_AT_EPOCH><BSTAR>.13612608E-3</BSTAR><MEAN_MOTION_DOT>.42E-5</MEAN_MOTION_DOT><MEAN_MOTION_DDOT>0</MEAN_MOTION_DDOT></tleParameters></data></segment></body></omm>
<omm id="CCSDS_OMM_VERS" version="2.0">
<header><CREATION_DATE/><ORIGINATOR/></header><body><segment><metadata><OBJECT_NAME>IRIDIUM 69</OBJECT_NAME><OBJECT_ID>1998-026A</OBJECT_ID><CENTER_NAME>EARTH</CENTER_NAME><REF_FRAME>TEME</REF_FRAME><TIME_SYSTEM>UTC</TIME_SYSTEM><MEAN_ELEMENT_THEORY>SGP4</MEAN_ELEMENT_THEORY></metadata><data><meanElements><EPOCH>2025-09-16T23:48:40.089024</EPOCH><MEAN_MOTION>14.41045918</MEAN_MOTION><ECCENTRICITY>.00045054</ECCENTRICITY><INCLINATION>86.3941</INCLINATION><RA_OF_ASC_NODE>56.5932</RA_OF_ASC_NODE><ARG_OF_PERICENTER>85.8879</ARG_OF_PERICENTER><MEAN_ANOMALY>274.2835</MEAN_ANOMALY></meanElements><tleParameters><EPHEMERIS_TYPE>0</EPHEMERIS_TYPE><CLASSIFICATION_TYPE>U</CLASSIFICATION_TYPE><NORAD_CAT_ID>25319</NORAD_CAT_ID><ELEMENT_SET_NO>999</ELEMENT_SET_NO><REV_AT_EPOCH>43628</REV_AT_EPOCH><BSTAR>.11879283E-3</BSTAR><MEAN_MOTION_DOT>.402E-5</MEAN_MOTION_DOT><MEAN_MOTION_DDOT>0</MEAN_MOTION_DDOT></tleParameters></data></segment></body></omm>
<omm id="CCSDS_OMM_VERS" version="2.0">
<header><CREATION_DATE/><ORIGINATOR/></header><body><segment><metadata><OBJECT_NAME>IRIDIUM 71</OBJECT_NAME><OBJECT_ID>1998-026B</OBJECT_ID><CENTER_NAME>EARTH</CENTER_NAME><REF_FRAME>TEME</REF_FRAME><TIME_SYSTEM>UTC</TIME_SYSTEM><MEAN_ELEMENT_THEORY>SGP4</MEAN_ELEMENT_THEORY></metadata><data><meanElements><EPOCH>2025-09-16T22:01:34.890816</EPOCH><MEAN_MOTION>14.41227149</MEAN_MOTION><ECCENTRICITY>.00038463</ECCENTRICITY><INCLINATION>86.3951</INCLINATION><RA_OF_ASC_NODE>51.3021</RA_OF_ASC_NODE><ARG_OF_PERICENTER>116.9266</ARG_OF_PERICENTER><MEAN_ANOMALY>243.2327</MEAN_ANOMALY></meanElements><tleParameters><EPHEMERIS_TYPE>0</EPHEMERIS_TYPE><CLASSIFICATION_TYPE>U</CLASSIFICATION_TYPE><NORAD_CAT_ID>25320</NORAD_CAT_ID><ELEMENT_SET_NO>999</ELEMENT_SET_NO><REV_AT_EPOCH>43680</REV_AT_EPOCH><BSTAR>.11182341E-3</BSTAR><MEAN_MOTION_DOT>.381E-5</MEAN_MOTION_DOT><MEAN_MOTION_DDOT>0</MEAN_MOTION_DDOT></tleParameters></data></segment></body></omm>
<omm id="CCSDS_OMM_VERS" version="2.0">
<header><CREATION_DATE/><ORIGINATOR/></header><body><segment><metadata><OBJECT_NAME>IRIDIUM 73</OBJECT_NAME><OBJECT_ID>1998-032C</OBJECT_ID><CENTER_NAME>EARTH</CENTER_NAME><REF_FRAME>TEME</REF_FRAME><TIME_SYSTEM>UTC</TIME_SYSTEM><MEAN_ELEMENT_THEORY>SGP4</MEAN_ELEMENT_THEORY></metadata><data><meanElements><EPOCH>2025-09-17T06:50:38.521248</EPOCH><MEAN_MOTION>14.51818137</MEAN_MOTION><ECCENTRICITY>.00027107</ECCENTRICITY><INCLINATION>86.4469</INCLINATION><RA_OF_ASC_NODE>7.6991</RA_OF_ASC_NODE><ARG_OF_PERICENTER>81.8981</ARG_OF_PERICENTER><MEAN_ANOMALY>278.2532</MEAN_ANOMALY></meanElements><tleParameters><EPHEMERIS_TYPE>0</EPHEMERIS_TYPE><CLASSIFICATION_TYPE>U</CLASSIFICATION_TYPE><NORAD_CAT_ID>25344</NORAD_CAT_ID><ELEMENT_SET_NO>999</ELEMENT_SET_NO><REV_AT_EPOCH>44392</REV_AT_EPOCH><BSTAR>.13324253E-3</BSTAR><MEAN_MOTION_DOT>.557E-5</MEAN_MOTION_DOT><MEAN_MOTION_DDOT>0</MEAN_MOTION_DDOT></tleParameters></data></segment></body></omm>
<omm id="CCSDS_OMM_VERS" version="2.0">
<header><CREATION_DATE/><ORIGINATOR/></header><body><segment><metadata><OBJECT_NAME>IRIDIUM 82</OBJECT_NAME><OBJECT_ID>1998-051A</OBJECT_ID><CENTER_NAME>EARTH</CENTER_NAME><REF_FRAME>TEME</REF_FRAME><TIME_SYSTEM>UTC</TIME_SYSTEM><MEAN_ELEMENT_THEORY>SGP4</MEAN_ELEMENT_THEORY></metadata><data><meanElements><EPOCH>2025-09-16T22:17:55.836672</EPOCH><MEAN_MOTION>15.36657185</MEAN_MOTION><ECCENTRICITY>.0075885</ECCENTRICITY><INCLINATION>86.3609</INCLINATION><RA_OF_ASC_NODE>64.4532</RA_OF_ASC_NODE><ARG_OF_PERICENTER>307.8381</ARG_OF_PERICENTER><MEAN_ANOMALY>51.6019</MEAN_ANOMALY></meanElements><tleParameters><EPHEMERIS_TYPE>0</EPHEMERIS_TYPE><CLASSIFICATION_TYPE>U</CLASSIFICATION_TYPE><NORAD_CAT_ID>25467</NORAD_CAT_ID><ELEMENT_SET_NO>999</ELEMENT_SET_NO><REV_AT_EPOCH>43802</REV_AT_EPOCH><BSTAR>.67563458E-3</BSTAR><MEAN_MOTION_DOT>.26727E-3</MEAN_MOTION_DOT><MEAN_MOTION_DDOT>0</MEAN_MOTION_DDOT></tleParameters></data></segment></body></omm>
</ndm>
