IRIDIUM 63              
1 25286U 98021B   25259.91403652  .00000420  00000+0  13613-3 0  9998
2 25286  86.3975  43.6210 0002087  86.7002 273.4434 14.36612399437015
IRIDIUM 69              
1 25319U 98026A   25259.99213066  .00000402  00000+0  11879-3 0  9998
2 25319  86.3941  56.5932 0004505  85.8879 274.2835 14.41045918436283
IRIDIUM 71              
1 25320U 98026B   25259.91776494  .00000381  00000+0  11182-3 0  9994
2 25320  86.3951  51.3021 0003846 116.9266 243.2327 14.41227149436809
IRIDIUM 73              
1 25344U 98032C   25260.28516807  .00000557  00000+0  13324-3 0  9994
2 25344  86.4469   7.6991 0002710  81.8981 278.2532 14.51818137443924
IRIDIUM 82              
1 25467U 98051A   25259.92911848  .00026727  00000+0  67563-3 0  9995
2 25467  86.3609  64.4532 0075885 307.8381  51.6019 15.36657185438021
